{
  "type": "FeatureCollection",
  "features": [
    {
      "type": "Feature",
      "properties": {
        "norad_id": 37867,
        "name": "COSMOS 2476 (744)",
        "group": "glo-ops",
        "lat": -26.621392873931626,
        "lon": 65.56650822529726,
        "alt_km": 19139.703927506296,
        "timestamp": "2025-12-19T04:59:48.567012+00:00",
        "meta_object_name": "COSMOS 2476 (744)",
        "meta_object_id": "2011-064A",
        "meta_epoch": "2025-12-18T07:35:13.446240",
        "meta_mean_motion": 2.13103876,
        "meta_eccentricity": 0.00242895,
        "meta_inclination": 65.1659,
        "meta_ra_of_asc_node": 78.9826,
        "meta_arg_of_pericenter": 234.6288,
        "meta_mean_anomaly": 131.1641,
        "meta_ephemeris_type": 0,
        "meta_classification_type": "U",
        "meta_norad_cat_id": 37867,
        "meta_element_set_no": 999,
        "meta_rev_at_epoch": 10991,
        "meta_bstar": 0,
        "meta_mean_motion_dot": -4e-07,
        "meta_mean_motion_ddot": 0,
        "tle_line1": "1 37867U 11064A   25352.31612785 -.00000040  00000+0  00000+0 0  9996",
        "tle_line2": "2 37867  65.1659  78.9826 0024289 234.6288 131.1641  2.13103876109911"
      },
      "geometry": {
        "type": "Point",
        "coordinates": [
          65.56650822529726,
          -26.621392873931626
        ]
      }
    },
    {
      "type": "Feature",
      "properties": {
        "norad_id": 37868,
        "name": "COSMOS 2477 (745)",
        "group": "glo-ops",
        "lat": 26.231790639366196,
        "lon": -114.12142023208867,
        "alt_km": 19121.10354958047,
        "timestamp": "2025-12-19T04:59:48.567023+00:00",
        "meta_object_name": "COSMOS 2477 (745)",
        "meta_object_id": "2011-064B",
        "meta_epoch": "2025-12-18T12:02:16.818720",
        "meta_mean_motion": 2.13102921,
        "meta_eccentricity": 0.00212144,
        "meta_inclination": 65.1723,
        "meta_ra_of_asc_node": 79.0538,
        "meta_arg_of_pericenter": 234.8854,
        "meta_mean_anomaly": 94.0943,
        "meta_ephemeris_type": 0,
        "meta_classification_type": "U",
        "meta_norad_cat_id": 37868,
        "meta_element_set_no": 999,
        "meta_rev_at_epoch": 10990,
        "meta_bstar": 0,
        "meta_mean_motion_dot": -3.8e-07,
        "meta_mean_motion_ddot": 0,
        "tle_line1": "1 37868U 11064B   25352.50158355 -.00000038  00000+0  00000+0 0  9993",
        "tle_line2": "2 37868  65.1723  79.0538 0021214 234.8854  94.0943  2.13102921109903"
      },
      "geometry": {
        "type": "Point",
        "coordinates": [
          -114.12142023208867,
          26.231790639366196
        ]
      }
    },
    {
      "type": "Feature",
      "properties": {
        "norad_id": 37869,
        "name": "COSMOS 2475 (743)",
        "group": "glo-ops",
        "lat": 60.34255395930791,
        "lon": -155.16454918748815,
        "alt_km": 19176.35822492584,
        "timestamp": "2025-12-19T04:59:48.567035+00:00",
        "meta_object_name": "COSMOS 2475 (743)",
        "meta_object_id": "2011-064C",
        "meta_epoch": "2025-12-18T05:19:14.657088",
        "meta_mean_motion": 2.13101609,
        "meta_eccentricity": 0.0026433,
        "meta_inclination": 65.1789,
        "meta_ra_of_asc_node": 79.0834,
        "meta_arg_of_pericenter": 248.8457,
        "meta_mean_anomaly": 181.3342,
        "meta_ephemeris_type": 0,
        "meta_classification_type": "U",
        "meta_norad_cat_id": 37869,
        "meta_element_set_no": 999,
        "meta_rev_at_epoch": 10991,
        "meta_bstar": 0,
        "meta_mean_motion_dot": -4.1e-07,
        "meta_mean_motion_ddot": 0,
        "tle_line1": "1 37869U 11064C   25352.22169742 -.00000041  00000+0  00000+0 0  9999",
        "tle_line2": "2 37869  65.1789  79.0834 0026433 248.8457 181.3342  2.13101609109913"
      },
      "geometry": {
        "type": "Point",
        "coordinates": [
          -155.16454918748815,
          60.34255395930791
        ]
      }
    },
    {
      "type": "Feature",
      "properties": {
        "norad_id": 39155,
        "name": "COSMOS 2485 (747)",
        "group": "glo-ops",
        "lat": 16.844055995525366,
        "lon": 87.64923698347593,
        "alt_km": 19182.152395794386,
        "timestamp": "2025-12-19T04:59:48.567047+00:00",
        "meta_object_name": "COSMOS 2485 (747)",
        "meta_object_id": "2013-019A",
        "meta_epoch": "2025-12-18T17:09:02.723904",
        "meta_mean_motion": 2.13103162,
        "meta_eccentricity": 0.00247945,
        "meta_inclination": 65.3168,
        "meta_ra_of_asc_node": 79.6662,
        "meta_arg_of_pericenter": 230.0008,
        "meta_mean_anomaly": 129.8045,
        "meta_ephemeris_type": 0,
        "meta_classification_type": "U",
        "meta_norad_cat_id": 39155,
        "meta_element_set_no": 999,
        "meta_rev_at_epoch": 9843,
        "meta_bstar": 0,
        "meta_mean_motion_dot": -3.5e-07,
        "meta_mean_motion_ddot": 0,
        "tle_line1": "1 39155U 13019A   25352.71461486 -.00000035  00000+0  00000+0 0  9998",
        "tle_line2": "2 39155  65.3168  79.6662 0024794 230.0008 129.8045  2.13103162 98431"
      },
      "geometry": {
        "type": "Point",
        "coordinates": [
          87.64923698347593,
          16.844055995525366
        ]
      }
    },
    {
      "type": "Feature",
      "properties": {
        "norad_id": 39620,
        "name": "COSMOS 2492 (754)",
        "group": "glo-ops",
        "lat": 44.532376136106905,
        "lon": -13.191919647475403,
        "alt_km": 19129.738080317373,
        "timestamp": "2025-12-19T04:59:48.567058+00:00",
        "meta_object_name": "COSMOS 2492 (754)",
        "meta_object_id": "2014-012A",
        "meta_epoch": "2025-12-18T04:53:42.056736",
        "meta_mean_motion": 2.13103354,
        "meta_eccentricity": 0.0014217,
        "meta_inclination": 65.4043,
        "meta_ra_of_asc_node": 320.0846,
        "meta_arg_of_pericenter": 312.4931,
        "meta_mean_anomaly": 47.3782,
        "meta_ephemeris_type": 0,
        "meta_classification_type": "U",
        "meta_norad_cat_id": 39620,
        "meta_element_set_no": 999,
        "meta_rev_at_epoch": 9138,
        "meta_bstar": 0,
        "meta_mean_motion_dot": -6.4e-07,
        "meta_mean_motion_ddot": 0,
        "tle_line1": "1 39620U 14012A   25352.20395899 -.00000064  00000+0  00000+0 0  9999",
        "tle_line2": "2 39620  65.4043 320.0846 0014217 312.4931  47.3782  2.13103354 91389"
      },
      "geometry": {
        "type": "Point",
        "coordinates": [
          -13.191919647475403,
          44.532376136106905
        ]
      }
    },
    {
      "type": "Feature",
      "properties": {
        "norad_id": 40001,
        "name": "COSMOS 2500 (755)",
        "group": "glo-ops",
        "lat": -64.0198845942944,
        "lon": -110.66431560484861,
        "alt_km": 19125.656939398268,
        "timestamp": "2025-12-19T04:59:48.567103+00:00",
        "meta_object_name": "COSMOS 2500 (755)",
        "meta_object_id": "2014-032A",
        "meta_epoch": "2025-12-17T21:45:50.523264",
        "meta_mean_motion": 2.13106065,
        "meta_eccentricity": 0.00080575,
        "meta_inclination": 65.3403,
        "meta_ra_of_asc_node": 319.8565,
        "meta_arg_of_pericenter": 219.1485,
        "meta_mean_anomaly": 140.7851,
        "meta_ephemeris_type": 0,
        "meta_classification_type": "U",
        "meta_norad_cat_id": 40001,
        "meta_element_set_no": 999,
        "meta_rev_at_epoch": 8959,
        "meta_bstar": 0,
        "meta_mean_motion_dot": -6.5e-07,
        "meta_mean_motion_ddot": 0,
        "tle_line1": "1 40001U 14032A   25351.90683476 -.00000065  00000+0  00000+0 0  9994",
        "tle_line2": "2 40001  65.3403 319.8565 0008057 219.1485 140.7851  2.13106065 89596"
      },
      "geometry": {
        "type": "Point",
        "coordinates": [
          -110.66431560484861,
          -64.0198845942944
        ]
      }
    },
    {
      "type": "Feature",
      "properties": {
        "norad_id": 40315,
        "name": "COSMOS 2501 (702K)",
        "group": "glo-ops",
        "lat": 61.4626741443469,
        "lon": -97.43719575152856,
        "alt_km": 19152.854563294033,
        "timestamp": "2025-12-19T04:59:48.567120+00:00",
        "meta_object_name": "COSMOS 2501 (702K)",
        "meta_object_id": "2014-075A",
        "meta_epoch": "2025-12-17T16:44:15.819648",
        "meta_mean_motion": 2.1310145,
        "meta_eccentricity": 0.0020092,
        "meta_inclination": 63.6148,
        "meta_ra_of_asc_node": 196.6532,
        "meta_arg_of_pericenter": 204.0953,
        "meta_mean_anomaly": 155.89,
        "meta_ephemeris_type": 0,
        "meta_classification_type": "U",
        "meta_norad_cat_id": 40315,
        "meta_element_set_no": 999,
        "meta_rev_at_epoch": 8598,
        "meta_bstar": 0,
        "meta_mean_motion_dot": 1.11e-06,
        "meta_mean_motion_ddot": 0,
        "tle_line1": "1 40315U 14075A   25351.69740532  .00000111  00000+0  00000+0 0  9993",
        "tle_line2": "2 40315  63.6148 196.6532 0020092 204.0953 155.8900  2.13101450 85986"
      },
      "geometry": {
        "type": "Point",
        "coordinates": [
          -97.43719575152856,
          61.4626741443469
        ]
      }
    }
  ]
}